[{"OBJECT_NAME":"ONEWEB-0212","OBJECT_ID":"2021-045AA","EPOCH":"2025-07-30T20:49:28.873920","MEAN_MOTION":13.15549345,"ECCENTRICITY":0.000185,"INCLINATION":87.9078,"RA_OF_ASC_NODE":323.2552,"ARG_OF_PERICENTER":98.3053,"MEAN_ANOMALY":261.8287,"EPHEMERIS_TYPE":0,"CLASSIFICATION_TYPE":"U","NORAD_CAT_ID":48791,"ELEMENT_SET_NO":999,"REV_AT_EPOCH":20332,"BSTAR":-0.00025312,"MEAN_MOTION_DOT":-8.2e-7,"MEAN_MOTION_DDOT":0},{"OBJECT_NAME":"ONEWEB-0227","OBJECT_ID":"2021-045AB","EPOCH":"2025-07-30T20:48:19.249344","MEAN_MOTION":13.15548112,"ECCENTRICITY":0.0001968,"INCLINATION":87.908,"RA_OF_ASC_NODE":323.2751,"ARG_OF_PERICENTER":94.6414,"MEAN_ANOMALY":265.4941,"EPHEMERIS_TYPE":0,"CLASSIFICATION_TYPE":"U","NORAD_CAT_ID":48792,"ELEMENT_SET_NO":999,"REV_AT_EPOCH":20326,"BSTAR":-0.0002881,"MEAN_MOTION_DOT":-9.6e-7,"MEAN_MOTION_DDOT":0},{"OBJECT_NAME":"ONEWEB-0226","OBJECT_ID":"2021-045AC","EPOCH":"2025-07-30T20:39:12.022848","MEAN_MOTION":13.15549377,"ECCENTRICITY":0.0002277,"INCLINATION":87.9085,"RA_OF_ASC_NODE":323.2805,"ARG_OF_PERICENTER":94.8669,"MEAN_ANOMALY":265.2721,"EPHEMERIS_TYPE":0,"CLASSIFICATION_TYPE":"U","NORAD_CAT_ID":48793,"ELEMENT_SET_NO":999,"REV_AT_EPOCH":20210,"BSTAR":-0.00015388,"MEAN_MOTION_DOT":-4.5e-7,"MEAN_MOTION_DDOT":0},{"OBJECT_NAME":"ONEWEB-0224","OBJECT_ID":"2021-045AD","EPOCH":"2025-07-30T19:46:44.152032","MEAN_MOTION":13.15546694,"ECCENTRICITY":0.0001542,"INCLINATION":87.9079,"RA_OF_ASC_NODE":323.3253,"ARG_OF_PERICENTER":68.5943,"MEAN_ANOMALY":291.5351,"EPHEMERIS_TYPE":0,"CLASSIFICATION_TYPE":"U","NORAD_CAT_ID":48794,"ELEMENT_SET_NO":999,"REV_AT_EPOCH":20202,"BSTAR":6.4912e-5,"MEAN_MOTION_DOT":3.7e-7,"MEAN_MOTION_DDOT":0},{"OBJECT_NAME":"ONEWEB-0233","OBJECT_ID":"2021-045AE","EPOCH":"2025-07-30T19:53:21.254208","MEAN_MOTION":13.15550318,"ECCENTRICITY":0.0002022,"INCLINATION":87.9086,"RA_OF_ASC_NODE":323.3325,"ARG_OF_PERICENTER":88.8,"MEAN_ANOMALY":271.3362,"EPHEMERIS_TYPE":0,"CLASSIFICATION_TYPE":"U","NORAD_CAT_ID":48795,"ELEMENT_SET_NO":999,"REV_AT_EPOCH":20204,"BSTAR":0.00027097,"MEAN_MOTION_DOT":1.15e-6,"MEAN_MOTION_DDOT":0},{"OBJECT_NAME":"ONEWEB-0190","OBJECT_ID":"2021-045AF","EPOCH":"2025-07-30T19:35:19.000032","MEAN_MOTION":13.15547034,"ECCENTRICITY":0.0002492,"INCLINATION":87.9084,"RA_OF_ASC_NODE":323.2997,"ARG_OF_PERICENTER":83.6361,"MEAN_ANOMALY":276.5053,"EPHEMERIS_TYPE":0,"CLASSIFICATION_TYPE":"U","NORAD_CAT_ID":48796,"ELEMENT_SET_NO":999,"REV_AT_EPOCH":20211,"BSTAR":-7.4988e-5,"MEAN_MOTION_DOT":-1.5e-7,"MEAN_MOTION_DDOT":0},{"OBJECT_NAME":"ONEWEB-0236","OBJECT_ID":"2021-045AG","EPOCH":"2025-07-30T20:00:24.221088","MEAN_MOTION":13.15547128,"ECCENTRICITY":0.0001753,"INCLINATION":87.9093,"RA_OF_ASC_NODE":323.3056,"ARG_OF_PERICENTER":98.4097,"MEAN_ANOMALY":261.7233,"EPHEMERIS_TYPE":0,"CLASSIFICATION_TYPE":"U","NORAD_CAT_ID":48797,"ELEMENT_SET_NO":999,"REV_AT_EPOCH":20200,"BSTAR":0.00039393,"MEAN_MOTION_DOT":1.61e-6,"MEAN_MOTION_DDOT":0},{"OBJECT_NAME":"ONEWEB-0248","OBJECT_ID":"2021-045AH","EPOCH":"2025-07-30T20:18:39.725568","MEAN_MOTION":13.15550159,"ECCENTRICITY":0.0001975,"INCLINATION":87.9083,"RA_OF_ASC_NODE":323.2578,"ARG_OF_PERICENTER":78.4414,"MEAN_ANOMALY":281.6938,"EPHEMERIS_TYPE":0,"CLASSIFICATION_TYPE":"U","NORAD_CAT_ID":48798,"ELEMENT_SET_NO":999,"REV_AT_EPOCH":20216,"BSTAR":0.00022951,"MEAN_MOTION_DOT":9.9e-7,"MEAN_MOTION_DDOT":0},{"OBJECT_NAME":"ONEWEB-0225","OBJECT_ID":"2021-045AJ","EPOCH":"2025-07-30T20:50:35.215296","MEAN_MOTION":13.15546631,"ECCENTRICITY":0.000234,"INCLINATION":87.9088,"RA_OF_ASC_NODE":323.2848,"ARG_OF_PERICENTER":85.378,"MEAN_ANOMALY":274.7618,"EPHEMERIS_TYPE":0,"CLASSIFICATION_TYPE":"U","NORAD_CAT_ID":48799,"ELEMENT_SET_NO":999,"REV_AT_EPOCH":20217,"BSTAR":-0.00027192,"MEAN_MOTION_DOT":-9.0e-7,"MEAN_MOTION_DDOT":0},{"OBJECT_NAME":"ONEWEB-0215","OBJECT_ID":"2021-045AK","EPOCH":"2025-07-30T20:07:15.363264","MEAN_MOTION":13.15547727,"ECCENTRICITY":0.0002217,"INCLINATION":87.9081,"RA_OF_ASC_NODE":323.2417,"ARG_OF_PERICENTER":80.1065,"MEAN_ANOMALY":280.0316,"EPHEMERIS_TYPE":0,"CLASSIFICATION_TYPE":"U","NORAD_CAT_ID":48800,"ELEMENT_SET_NO":999,"REV_AT_EPOCH":20204,"BSTAR":0.00039508,"MEAN_MOTION_DOT":1.62e-6,"MEAN_MOTION_DDOT":0},{"OBJECT_NAME":"ONEWEB-0216","OBJECT_ID":"2021-045AL","EPOCH":"2025-07-30T20:20:56.494176","MEAN_MOTION":13.15548136,"ECCENTRICITY":0.0002122,"INCLINATION":87.9079,"RA_OF_ASC_NODE":323.2851,"ARG_OF_PERICENTER":100.4031,"MEAN_ANOMALY":259.7338,"EPHEMERIS_TYPE":0,"CLASSIFICATION_TYPE":"U","NORAD_CAT_ID":48801,"ELEMENT_SET_NO":999,"REV_AT_EPOCH":20205,"BSTAR":0.00014843,"MEAN_MOTION_DOT":6.9e-7,"MEAN_MOTION_DDOT":0},{"OBJECT_NAME":"ONEWEB-0239","OBJECT_ID":"2021-045AM","EPOCH":"2025-07-30T20:27:47.721888","MEAN_MOTION":13.15547465,"ECCENTRICITY":0.000203,"INCLINATION":87.9086,"RA_OF_ASC_NODE":323.2965,"ARG_OF_PERICENTER":74.3545,"MEAN_ANOMALY":285.7809,"EPHEMERIS_TYPE":0,"CLASSIFICATION_TYPE":"U","NORAD_CAT_ID":48802,"ELEMENT_SET_NO":999,"REV_AT_EPOCH":20209,"BSTAR":0.0001831,"MEAN_MOTION_DOT":8.2e-7,"MEAN_MOTION_DDOT":0},{"OBJECT_NAME":"ONEWEB-0249","OBJECT_ID":"2021-060A","EPOCH":"2025-07-30T17:41:12.120576","MEAN_MOTION":13.16595404,"ECCENTRICITY":0.0001915,"INCLINATION":87.9048,"RA_OF_ASC_NODE":292.8551,"ARG_OF_PERICENTER":97.0107,"MEAN_ANOMALY":263.1242,"EPHEMERIS_TYPE":0,"CLASSIFICATION_TYPE":"U","NORAD_CAT_ID":48967,"ELEMENT_SET_NO":999,"REV_AT_EPOCH":19731,"BSTAR":-8.1055e-5,"MEAN_MOTION_DOT":-1.8e-7,"MEAN_MOTION_DDOT":0},{"OBJECT_NAME":"ONEWEB-0250","OBJECT_ID":"2021-060B","EPOCH":"2025-07-30T17:40:47.432640","MEAN_MOTION":13.25810118,"ECCENTRICITY":0.0001401,"INCLINATION":87.9048,"RA_OF_ASC_NODE":291.6642,"ARG_OF_PERICENTER":70.8041,"MEAN_ANOMALY":289.3246,"EPHEMERIS_TYPE":0,"CLASSIFICATION_TYPE":"U","NORAD_CAT_ID":48968,"ELEMENT_SET_NO":999,"REV_AT_EPOCH":19762,"BSTAR":-8.5577e-5,"MEAN_MOTION_DOT":-2.4e-7,"MEAN_MOTION_DDOT":0},{"OBJECT_NAME":"ONEWEB-0252","OBJECT_ID":"2021-060D","EPOCH":"2025-07-30T22:05:40.540704","MEAN_MOTION":13.16595729,"ECCENTRICITY":0.0002272,"INCLINATION":87.9048,"RA_OF_ASC_NODE":292.8116,"ARG_OF_PERICENTER":104.043,"MEAN_ANOMALY":256.0953,"EPHEMERIS_TYPE":0,"CLASSIFICATION_TYPE":"U","NORAD_CAT_ID":48970,"ELEMENT_SET_NO":999,"REV_AT_EPOCH":19738,"BSTAR":0.00020304,"MEAN_MOTION_DOT":9.0e-7,"MEAN_MOTION_DDOT":0},{"OBJECT_NAME":"ONEWEB-0253","OBJECT_ID":"2021-060E","EPOCH":"2025-07-30T18:10:50.782080","MEAN_MOTION":13.16595521,"ECCENTRICITY":0.0002118,"INCLINATION":87.9046,"RA_OF_ASC_NODE":292.8478,"ARG_OF_PERICENTER":93.275,"MEAN_ANOMALY":266.8623,"EPHEMERIS_TYPE":0,"CLASSIFICATION_TYPE":"U","NORAD_CAT_ID":48971,"ELEMENT_SET_NO":999,"REV_AT_EPOCH":19729,"BSTAR":0.00023235,"MEAN_MOTION_DOT":1.02e-6,"MEAN_MOTION_DDOT":0},{"OBJECT_NAME":"ONEWEB-0254","OBJECT_ID":"2021-060F","EPOCH":"2025-07-30T22:03:24.789888","MEAN_MOTION":13.16595247,"ECCENTRICITY":0.0002014,"INCLINATION":87.905,"RA_OF_ASC_NODE":292.8013,"ARG_OF_PERICENTER":85.4303,"MEAN_ANOMALY":274.7058,"EPHEMERIS_TYPE":0,"CLASSIFICATION_TYPE":"U","NORAD_CAT_ID":48972,"ELEMENT_SET_NO":999,"REV_AT_EPOCH":19731,"BSTAR":0.00032115,"MEAN_MOTION_DOT":1.36e-6,"MEAN_MOTION_DDOT":0}]
