ONEWEB-0212             
1 48791U 21045AA  25211.86769530 -.00000082  00000+0 -25312-3 0  9993
2 48791  87.9078 323.2552 0001850  98.3053 261.8287 13.15549345203328
ONEWEB-0227             
1 48792U 21045AB  25211.86688946 -.00000096  00000+0 -28810-3 0  9996
2 48792  87.9080 323.2751 0001968  94.6414 265.4941 13.15548112203264
ONEWEB-0226             
1 48793U 21045AC  25211.86055582 -.00000045  00000+0 -15388-3 0  9991
2 48793  87.9085 323.2805 0002277  94.8669 265.2721 13.15549377202108
ONEWEB-0224             
1 48794U 21045AD  25211.82412213  .00000037  00000+0  64912-4 0  9993
2 48794  87.9079 323.3253 0001542  68.5943 291.5351 13.15546694202028
ONEWEB-0233             
1 48795U 21045AE  25211.82871822  .00000115  00000+0  27097-3 0  9998
2 48795  87.9086 323.3325 0002022  88.8000 271.3362 13.15550318202048
ONEWEB-0190             
1 48796U 21045AF  25211.81619213 -.00000015  00000+0 -74988-4 0  9995
2 48796  87.9084 323.2997 0002492  83.6361 276.5053 13.15547034202118
ONEWEB-0236             
1 48797U 21045AG  25211.83361367  .00000161  00000+0  39393-3 0  9992
2 48797  87.9093 323.3056 0001753  98.4097 261.7233 13.15547128202003
ONEWEB-0248             
1 48798U 21045AH  25211.84629312  .00000099  00000+0  22951-3 0  9993
2 48798  87.9083 323.2578 0001975  78.4414 281.6938 13.15550159202166
ONEWEB-0225             
1 48799U 21045AJ  25211.86846314 -.00000090  00000+0 -27192-3 0  9994
2 48799  87.9088 323.2848 0002340  85.3780 274.7618 13.15546631202171
ONEWEB-0215             
1 48800U 21045AK  25211.83837226  .00000162  00000+0  39508-3 0  9998
2 48800  87.9081 323.2417 0002217  80.1065 280.0316 13.15547727202049
ONEWEB-0216             
1 48801U 21045AL  25211.84787609  .00000069  00000+0  14843-3 0  9990
2 48801  87.9079 323.2851 0002122 100.4031 259.7338 13.15548136202056
ONEWEB-0239             
1 48802U 21045AM  25211.85263567  .00000082  00000+0  18310-3 0  9992
2 48802  87.9086 323.2965 0002030  74.3545 285.7809 13.15547465202098
ONEWEB-0249             
1 48967U 21060A   25211.73694584 -.00000018  00000+0 -81055-4 0  9993
2 48967  87.9048 292.8551 0001915  97.0107 263.1242 13.16595404197313
ONEWEB-0250             
1 48968U 21060B   25211.73666010 -.00000024  00000+0 -85577-4 0  9997
2 48968  87.9048 291.6642 0001401  70.8041 289.3246 13.25810118197628
ONEWEB-0252             
1 48970U 21060D   25211.92060811  .00000090  00000+0  20304-3 0  9995
2 48970  87.9048 292.8116 0002272 104.0430 256.0953 13.16595729197386
ONEWEB-0253             
1 48971U 21060E   25211.75753220  .00000102  00000+0  23235-3 0  9990
2 48971  87.9046 292.8478 0002118  93.2750 266.8623 13.16595521197292
ONEWEB-0254             
1 48972U 21060F   25211.91903692  .00000136  00000+0  32115-3 0  9993
2 48972  87.9050 292.8013 0002014  85.4303 274.7058 13.16595247197313
